STARLINK-2022           
1 47643U 21012Z   23250.29299056  .00005634  00000+0  39692-3 0  9993
2 47643  53.0526 196.5069 0001607  81.5252 278.5919 15.06388734141923
